CCSDS_OMM_VERS = 2.0
CREATION_DATE  = 
ORIGINATOR     = 

OBJECT_NAME    = STARLINK-36639
OBJECT_ID      = 2026-022X
CENTER_NAME    = EARTH
REF_FRAME      = TEME
TIME_SYSTEM    = UTC
MEAN_ELEMENT_THEORY = SGP/SGP4

EPOCH          = 2026-02-24T00:59:29.387904
MEAN_MOTION    = 15.75212391
ECCENTRICITY   = .00014769
INCLINATION    = 97.2853
RA_OF_ASC_NODE = 88.3944
ARG_OF_PERICENTER = 106.5386
MEAN_ANOMALY   = 253.6042

EPHEMERIS_TYPE = 0
CLASSIFICATION_TYPE = U
NORAD_CAT_ID   = 67669
ELEMENT_SET_NO = 999
REV_AT_EPOCH   = 340
BSTAR          = .60523865E-3
MEAN_MOTION_DOT = .91204E-3
MEAN_MOTION_DDOT = 0

CCSDS_OMM_VERS = 2.0
CREATION_DATE  = 
ORIGINATOR     = 

OBJECT_NAME    = STARLINK-36596
OBJECT_ID      = 2026-022Y
CENTER_NAME    = EARTH
REF_FRAME      = TEME
TIME_SYSTEM    = UTC
MEAN_ELEMENT_THEORY = SGP/SGP4

EPOCH          = 2026-02-23T21:53:59.164512
MEAN_MOTION    = 15.75219904
ECCENTRICITY   = .0001951
INCLINATION    = 97.2853
RA_OF_ASC_NODE = 88.2626
ARG_OF_PERICENTER = 126.7217
MEAN_ANOMALY   = 233.4228

EPHEMERIS_TYPE = 0
CLASSIFICATION_TYPE = U
NORAD_CAT_ID   = 67670
ELEMENT_SET_NO = 999
REV_AT_EPOCH   = 338
BSTAR          = .84020328E-3
MEAN_MOTION_DOT = .127244E-2
MEAN_MOTION_DDOT = 0

CCSDS_OMM_VERS = 2.0
CREATION_DATE  = 
ORIGINATOR     = 

OBJECT_NAME    = STARLINK-36297
OBJECT_ID      = 2026-022Z
CENTER_NAME    = EARTH
REF_FRAME      = TEME
TIME_SYSTEM    = UTC
MEAN_ELEMENT_THEORY = SGP/SGP4

EPOCH          = 2026-02-23T21:50:56.064768
MEAN_MOTION    = 15.75221038
ECCENTRICITY   = .00021894
INCLINATION    = 97.2853
RA_OF_ASC_NODE = 88.2654
ARG_OF_PERICENTER = 146.3876
MEAN_ANOMALY   = 213.7529

EPHEMERIS_TYPE = 0
CLASSIFICATION_TYPE = U
NORAD_CAT_ID   = 67671
ELEMENT_SET_NO = 999
REV_AT_EPOCH   = 338
BSTAR          = .8550998E-3
MEAN_MOTION_DOT = .129547E-2
MEAN_MOTION_DDOT = 0

CCSDS_OMM_VERS = 2.0
CREATION_DATE  = 
ORIGINATOR     = 

OBJECT_NAME    = STARLINK-36616
OBJECT_ID      = 2026-022AA
CENTER_NAME    = EARTH
REF_FRAME      = TEME
TIME_SYSTEM    = UTC
MEAN_ELEMENT_THEORY = SGP/SGP4

EPOCH          = 2026-02-24T00:55:55.753536
MEAN_MOTION    = 15.75275366
ECCENTRICITY   = .00014446
INCLINATION    = 97.2849
RA_OF_ASC_NODE = 88.3966
ARG_OF_PERICENTER = 114.4860
MEAN_ANOMALY   = 245.6556

EPHEMERIS_TYPE = 0
CLASSIFICATION_TYPE = U
NORAD_CAT_ID   = 67672
ELEMENT_SET_NO = 999
REV_AT_EPOCH   = 340
BSTAR          = .14349045E-2
MEAN_MOTION_DOT = .22032E-2
MEAN_MOTION_DDOT = 0

CCSDS_OMM_VERS = 2.0
CREATION_DATE  = 
ORIGINATOR     = 

OBJECT_NAME    = COSMOS 2600
OBJECT_ID      = 2026-023A
CENTER_NAME    = EARTH
REF_FRAME      = TEME
TIME_SYSTEM    = UTC
MEAN_ELEMENT_THEORY = SGP/SGP4

EPOCH          = 2026-02-24T06:00:23.621760
MEAN_MOTION    = 15.83589368
ECCENTRICITY   = .00013913
INCLINATION    = 96.6460
RA_OF_ASC_NODE = 131.3143
ARG_OF_PERICENTER = 54.4948
MEAN_ANOMALY   = 305.6453

EPHEMERIS_TYPE = 0
CLASSIFICATION_TYPE = U
NORAD_CAT_ID   = 67674
ELEMENT_SET_NO = 999
REV_AT_EPOCH   = 292
BSTAR          = .41926024E-3
MEAN_MOTION_DOT = .92124E-3
MEAN_MOTION_DDOT = 0

CCSDS_OMM_VERS = 2.0
CREATION_DATE  = 
ORIGINATOR     = 

OBJECT_NAME    = 2026-023B
OBJECT_ID      = 2026-023B
CENTER_NAME    = EARTH
REF_FRAME      = TEME
TIME_SYSTEM    = UTC
MEAN_ELEMENT_THEORY = SGP/SGP4

EPOCH          = 2026-02-24T05:59:14.769600
MEAN_MOTION    = 15.22634347
ECCENTRICITY   = .00185406
INCLINATION    = 96.6378
RA_OF_ASC_NODE = 129.7551
ARG_OF_PERICENTER = 177.8874
MEAN_ANOMALY   = 182.2446

EPHEMERIS_TYPE = 0
CLASSIFICATION_TYPE = U
NORAD_CAT_ID   = 67675
ELEMENT_SET_NO = 999
REV_AT_EPOCH   = 281
BSTAR          = .51056723E-3
MEAN_MOTION_DOT = .11881E-3
MEAN_MOTION_DDOT = 0

CCSDS_OMM_VERS = 2.0
CREATION_DATE  = 
ORIGINATOR     = 

OBJECT_NAME    = 2026-023C
OBJECT_ID      = 2026-023C
CENTER_NAME    = EARTH
REF_FRAME      = TEME
TIME_SYSTEM    = UTC
MEAN_ELEMENT_THEORY = SGP/SGP4

EPOCH          = 2026-02-24T05:58:05.869920
MEAN_MOTION    = 15.22718242
ECCENTRICITY   = .00197297
INCLINATION    = 96.6413
RA_OF_ASC_NODE = 129.7728
ARG_OF_PERICENTER = 168.0272
MEAN_ANOMALY   = 192.1440

EPHEMERIS_TYPE = 0
CLASSIFICATION_TYPE = U
NORAD_CAT_ID   = 67676
ELEMENT_SET_NO = 999
REV_AT_EPOCH   = 297
BSTAR          = .54610279E-3
MEAN_MOTION_DOT = .12753E-3
MEAN_MOTION_DDOT = 0

CCSDS_OMM_VERS = 2.0
CREATION_DATE  = 
ORIGINATOR     = 

OBJECT_NAME    = 2026-023D
OBJECT_ID      = 2026-023D
CENTER_NAME    = EARTH
REF_FRAME      = TEME
TIME_SYSTEM    = UTC
MEAN_ELEMENT_THEORY = SGP/SGP4

EPOCH          = 2026-02-24T06:00:19.490112
MEAN_MOTION    = 15.22558181
ECCENTRICITY   = .00198529
INCLINATION    = 96.6444
RA_OF_ASC_NODE = 129.7590
ARG_OF_PERICENTER = 173.0243
MEAN_ANOMALY   = 187.1275

EPHEMERIS_TYPE = 0
CLASSIFICATION_TYPE = U
NORAD_CAT_ID   = 67677
ELEMENT_SET_NO = 999
REV_AT_EPOCH   = 280
BSTAR          = .46265067E-3
MEAN_MOTION_DOT = .10742E-3
MEAN_MOTION_DDOT = 0

CCSDS_OMM_VERS = 2.0
CREATION_DATE  = 
ORIGINATOR     = 

OBJECT_NAME    = 2026-023E
OBJECT_ID      = 2026-023E
CENTER_NAME    = EARTH
REF_FRAME      = TEME
TIME_SYSTEM    = UTC
MEAN_ELEMENT_THEORY = SGP/SGP4

EPOCH          = 2026-02-24T05:58:33.652704
MEAN_MOTION    = 15.22695747
ECCENTRICITY   = .0019679
INCLINATION    = 96.6338
RA_OF_ASC_NODE = 129.7505
ARG_OF_PERICENTER = 172.4536
MEAN_ANOMALY   = 187.7003

EPHEMERIS_TYPE = 0
CLASSIFICATION_TYPE = U
NORAD_CAT_ID   = 67678
ELEMENT_SET_NO = 999
REV_AT_EPOCH   = 280
BSTAR          = .55261936E-3
MEAN_MOTION_DOT = .12898E-3
MEAN_MOTION_DDOT = 0

CCSDS_OMM_VERS = 2.0
CREATION_DATE  = 
ORIGINATOR     = 

OBJECT_NAME    = 2026-023F
OBJECT_ID      = 2026-023F
CENTER_NAME    = EARTH
REF_FRAME      = TEME
TIME_SYSTEM    = UTC
MEAN_ELEMENT_THEORY = SGP/SGP4

EPOCH          = 2026-02-24T05:56:08.206080
MEAN_MOTION    = 15.22841225
ECCENTRICITY   = .00215615
INCLINATION    = 96.6344
RA_OF_ASC_NODE = 132.2491
ARG_OF_PERICENTER = 167.4710
MEAN_ANOMALY   = 192.7069

EPHEMERIS_TYPE = 0
CLASSIFICATION_TYPE = U
NORAD_CAT_ID   = 67679
ELEMENT_SET_NO = 999
REV_AT_EPOCH   = 279
BSTAR          = .62472074E-3
MEAN_MOTION_DOT = .1467E-3
MEAN_MOTION_DDOT = 0

CCSDS_OMM_VERS = 2.0
CREATION_DATE  = 
ORIGINATOR     = 

OBJECT_NAME    = 2026-023G
OBJECT_ID      = 2026-023G
CENTER_NAME    = EARTH
REF_FRAME      = TEME
TIME_SYSTEM    = UTC
MEAN_ELEMENT_THEORY = SGP/SGP4

EPOCH          = 2026-02-24T05:56:47.970816
MEAN_MOTION    = 15.22795529
ECCENTRICITY   = .00231597
INCLINATION    = 96.6271
RA_OF_ASC_NODE = 132.2394
ARG_OF_PERICENTER = 164.0334
MEAN_ANOMALY   = 196.1640

EPHEMERIS_TYPE = 0
CLASSIFICATION_TYPE = U
NORAD_CAT_ID   = 67680
ELEMENT_SET_NO = 999
REV_AT_EPOCH   = 279
BSTAR          = .58135938E-3
MEAN_MOTION_DOT = .13641E-3
MEAN_MOTION_DDOT = 0

CCSDS_OMM_VERS = 2.0
CREATION_DATE  = 
ORIGINATOR     = 

OBJECT_NAME    = 2026-023H
OBJECT_ID      = 2026-023H
CENTER_NAME    = EARTH
REF_FRAME      = TEME
TIME_SYSTEM    = UTC
MEAN_ELEMENT_THEORY = SGP/SGP4

EPOCH          = 2026-02-24T05:56:35.954304
MEAN_MOTION    = 15.22769406
ECCENTRICITY   = .00232135
INCLINATION    = 96.6416
RA_OF_ASC_NODE = 132.2550
ARG_OF_PERICENTER = 163.3732
MEAN_ANOMALY   = 196.8273

EPHEMERIS_TYPE = 0
CLASSIFICATION_TYPE = U
NORAD_CAT_ID   = 67681
ELEMENT_SET_NO = 999
REV_AT_EPOCH   = 279
BSTAR          = .47290032E-3
MEAN_MOTION_DOT = .11073E-3
MEAN_MOTION_DDOT = 0

CCSDS_OMM_VERS = 2.0
CREATION_DATE  = 
ORIGINATOR     = 

OBJECT_NAME    = 2026-023J
OBJECT_ID      = 2026-023J
CENTER_NAME    = EARTH
REF_FRAME      = TEME
TIME_SYSTEM    = UTC
MEAN_ELEMENT_THEORY = SGP/SGP4

EPOCH          = 2026-02-24T05:55:40.395648
MEAN_MOTION    = 15.22860307
ECCENTRICITY   = .00233972
INCLINATION    = 96.6372
RA_OF_ASC_NODE = 132.2635
ARG_OF_PERICENTER = 160.2866
MEAN_ANOMALY   = 199.9282

EPHEMERIS_TYPE = 0
CLASSIFICATION_TYPE = U
NORAD_CAT_ID   = 67682
ELEMENT_SET_NO = 999
REV_AT_EPOCH   = 279
BSTAR          = .67644272E-3
MEAN_MOTION_DOT = .15919E-3
MEAN_MOTION_DDOT = 0

CCSDS_OMM_VERS = 2.0
CREATION_DATE  = 
ORIGINATOR     = 

OBJECT_NAME    = ISS OBJECT XZ
OBJECT_ID      = 1998-067XZ
CENTER_NAME    = EARTH
REF_FRAME      = TEME
TIME_SYSTEM    = UTC
MEAN_ELEMENT_THEORY = SGP/SGP4

EPOCH          = 2026-02-23T14:51:13.783392
MEAN_MOTION    = 15.50631727
ECCENTRICITY   = .000987
INCLINATION    = 51.6312
RA_OF_ASC_NODE = 141.6993
ARG_OF_PERICENTER = 138.9197
MEAN_ANOMALY   = 221.2537

EPHEMERIS_TYPE = 0
CLASSIFICATION_TYPE = U
NORAD_CAT_ID   = 67683
ELEMENT_SET_NO = 999
REV_AT_EPOCH   = 260
BSTAR          = .67941E-3
MEAN_MOTION_DOT = .39458E-3
MEAN_MOTION_DDOT = 0

CCSDS_OMM_VERS = 2.0
CREATION_DATE  = 
ORIGINATOR     = 

OBJECT_NAME    = GXIBA-1
OBJECT_ID      = 1998-067YA
CENTER_NAME    = EARTH
REF_FRAME      = TEME
TIME_SYSTEM    = UTC
MEAN_ELEMENT_THEORY = SGP/SGP4

EPOCH          = 2026-02-24T06:04:04.283040
MEAN_MOTION    = 15.52128084
ECCENTRICITY   = .00113543
INCLINATION    = 51.6301
RA_OF_ASC_NODE = 138.4332
ARG_OF_PERICENTER = 133.1047
MEAN_ANOMALY   = 227.0895

EPHEMERIS_TYPE = 0
CLASSIFICATION_TYPE = U
NORAD_CAT_ID   = 67684
ELEMENT_SET_NO = 999
REV_AT_EPOCH   = 270
BSTAR          = .1073435E-2
MEAN_MOTION_DOT = .66339E-3
MEAN_MOTION_DDOT = 0

